[{"OBJECT_NAME":"STARLINK-30784","OBJECT_ID":"2023-166G","EPOCH":"2026-03-09T16:23:16.247616","MEAN_MOTION":15.30178394,"ECCENTRICITY":8.988e-5,"INCLINATION":53.1607,"RA_OF_ASC_NODE":219.9577,"ARG_OF_PERICENTER":89.6522,"MEAN_ANOMALY":270.4582,"EPHEMERIS_TYPE":0,"CLASSIFICATION_TYPE":"U","NORAD_CAT_ID":58156,"ELEMENT_SET_NO":999,"REV_AT_EPOCH":13302,"BSTAR":-3.7174257e-5,"MEAN_MOTION_DOT":-1.459e-5,"MEAN_MOTION_DDOT":0},{"OBJECT_NAME":"KUIPER-00209","OBJECT_ID":"2026-030N","EPOCH":"2026-03-09T14:49:43.575744","MEAN_MOTION":15.3016195,"ECCENTRICITY":0.0012191,"INCLINATION":51.8838,"RA_OF_ASC_NODE":220.0775,"ARG_OF_PERICENTER":59.1967,"MEAN_ANOMALY":301.0215,"EPHEMERIS_TYPE":0,"CLASSIFICATION_TYPE":"U","NORAD_CAT_ID":67776,"ELEMENT_SET_NO":999,"REV_AT_EPOCH":507,"BSTAR":0.0011963,"MEAN_MOTION_DOT":0.00035298,"MEAN_MOTION_DDOT":0}]
